$$SOE
2460721.500000000, A.D. 2025-Feb-15 00:00:00.0000, -2.088613826434364E+08, -2.518575924712459E+08, -3.259178498846324E+07,
2460728.500000000, A.D. 2025-Feb-22 00:00:00.0000, -1.982299277557778E+08, -2.578823848612445E+08, -3.214020677963887E+07,
2460735.500000000, A.D. 2025-Mar-01 00:00:00.0000, -1.873229422842537E+08, -2.635487110067815E+08, -3.164394993045376E+07,
2460742.500000000, A.D. 2025-Mar-08 00:00:00.0000, -1.761508293849000E+08, -2.688419990986784E+08, -3.110290097529753E+07,
2460749.500000000, A.D. 2025-Mar-15 00:00:00.0000, -1.647248100515086E+08, -2.737477463617007E+08, -3.051701549493620E+07,
2460756.500000000, A.D. 2025-Mar-22 00:00:00.0000, -1.530569545024570E+08, -2.782515628466904E+08, -2.988632300109805E+07,
2460763.500000000, A.D. 2025-Mar-29 00:00:00.0000, -1.411602106831308E+08, -2.823392218813767E+08, -2.921093229311143E+07,
2460770.500000000, A.D. 2025-Apr-05 00:00:00.0000, -1.290484290885916E+08, -2.859967141953844E+08, -2.849103703362507E+07,
2460777.500000000, A.D. 2025-Apr-12 00:00:00.0000, -1.167363853126143E+08, -2.892103057301336E+08, -2.772692132521194E+07,
2460784.500000000, A.D. 2025-Apr-19 00:00:00.0000, -1.042397999411323E+08, -2.919666000822183E+08, -2.691896530258828E+07,
2460791.500000000, A.D. 2025-Apr-26 00:00:00.0000, -9.157535490229973E+07, -2.942526057928880E+08, -2.606765073425254E+07,
2460798.500000000, A.D. 2025-May-03 00:00:00.0000, -7.876070549966723E+07, -2.960558084055979E+08, -2.517356658664398E+07,
2460805.500000000, A.D. 2025-May-10 00:00:00.0000, -6.581448740265601E+07, -2.973642471434821E+08, -2.423741448803057E+07,
2460812.500000000, A.D. 2025-May-17 00:00:00.0000, -5.275631782820703E+07, -2.981665960121975E+08, -2.326001402415086E+07,
2460819.500000000, A.D. 2025-May-24 00:00:00.0000, -3.960678998062698E+07, -2.984522490411944E+08, -2.224230780271301E+07,
2460826.500000000, A.D. 2025-May-31 00:00:00.0000, -2.638745955477389E+07, -2.982114089068651E+08, -2.118536621138145E+07,
2460833.500000000, A.D. 2025-Jun-07 00:00:00.0000, -1.312082293504089E+07, -2.974351771807731E+08, -2.009039164199987E+07,
2460840.500000000, A.D. 2025-Jun-14 00:00:00.0000, 1.697112778342009E+05, -2.961156461927683E+08, -1.895872192036900E+07,
2460847.500000000, A.D. 2025-Jun-21 00:00:00.0000, 1.345985930897252E+07, -2.942459949595056E+08, -1.779183321416435E+07,
2460854.500000000, A.D. 2025-Jun-28 00:00:00.0000, 2.672451156097995E+07, -2.918205864455076E+08, -1.659134244866586E+07,
2460861.500000000, A.D. 2025-Jul-05 00:00:00.0000, 3.993779328229267E+07, -2.888350628856074E+08, -1.535900879844475E+07,
2460868.500000000, A.D. 2025-Jul-12 00:00:00.0000, 5.307313577417797E+07, -2.852864387216088E+08, -1.409673409625641E+07,
2460875.500000000, A.D. 2025-Jul-19 00:00:00.0000, 6.610335859924620E+07, -2.811731903576169E+08, -1.280656211409548E+07,
2460882.500000000, A.D. 2025-Jul-26 00:00:00.0000, 7.900076310146627E+07, -2.764953413234794E+08, -1.149067664024383E+07,
2460889.500000000, A.D. 2025-Aug-02 00:00:00.0000, 9.173723719762115E+07, -2.712545412805128E+08, -1.015139826842675E+07,
2460896.500000000, A.D. 2025-Aug-09 00:00:00.0000, 1.042843711289827E+08, -2.654541372853944E+08, -8.791179828872263E+06,
2460903.500000000, A.D. 2025-Aug-16 00:00:00.0000, 1.166135836710839E+08, -2.590992357570692E+08, -7.412600417217046E+06,
2460910.500000000, A.D. 2025-Aug-23 00:00:00.0000, 1.286962582560306E+08, -2.521967535354899E+08, -6.018358010283366E+06,
2460917.500000000, A.D. 2025-Aug-30 00:00:00.0000, 1.405038882294879E+08, -2.447554557877450E+08, -4.611260627489984E+06,
2460924.500000000, A.D. 2025-Sep-06 00:00:00.0000, 1.520082284520955E+08, -2.367859783380308E+08, -3.194215840733886E+06,
2460931.500000000, A.D. 2025-Sep-13 00:00:00.0000, 1.631814499504637E+08, -2.283008356362763E+08, -1.770218728101447E+06,
2460938.500000000, A.D. 2025-Sep-20 00:00:00.0000, 1.739962990397221E+08, -2.193144149509635E+08, -3.423387843028456E+05,
2460945.500000000, A.D. 2025-Sep-27 00:00:00.0000, 1.844262599301760E+08, -2.098429528802536E+08, 1.086294258828714E+06,
2460952.500000000, A.D. 2025-Oct-04 00:00:00.0000, 1.944457165972973E+08, -1.999044931514761E+08, 2.512505788918450E+06,
2460959.500000000, A.D. 2025-Oct-11 00:00:00.0000, 2.040301112289185E+08, -1.895188264932752E+08, 3.933092632147230E+06,
2460966.500000000, A.D. 2025-Oct-18 00:00:00.0000, 2.131560971723326E+08, -1.787074130521110E+08, 5.344840087802909E+06,
2460973.500000000, A.D. 2025-Oct-25 00:00:00.0000, 2.218016841757963E+08, -1.674932879090274E+08, 6.744539445322551E+06,
2460980.500000000, A.D. 2025-Nov-01 00:00:00.0000, 2.299463737006830E+08, -1.559009506182238E+08, 8.129005743326508E+06,
2460987.500000000, A.D. 2025-Nov-08 00:00:00.0000, 2.375712822208012E+08, -1.439562400916258E+08, 9.495095515285000E+06,
2460994.500000000, A.D. 2025-Nov-15 00:00:00.0000, 2.446592507443107E+08, -1.316861965040439E+08, 1.083972424803091E+07,
2461001.500000000, A.D. 2025-Nov-22 00:00:00.0000, 2.511949393197525E+08, -1.191189118950004E+08, 1.215988328126664E+07,
2461008.500000000, A.D. 2025-Nov-29 00:00:00.0000, 2.571649050609261E+08, -1.062833704708767E+08, 1.345265601487752E+07,
2461015.500000000, A.D. 2025-Dec-06 00:00:00.0000, 2.625576604517320E+08, -9.320928107105176E+07, 1.471523339914189E+07,
2461022.500000000, A.D. 2025-Dec-13 00:00:00.0000, 2.673637117630352E+08, -7.992690760093233E+07, 1.594492818918846E+07,
2461029.500000000, A.D. 2025-Dec-20 00:00:00.0000, 2.715755808557479E+08, -6.646689887198839E+07, 1.713918755011786E+07,
2461036.500000000, A.D. 2025-Dec-27 00:00:00.0000, 2.751878094668602E+08, -5.286011769533682E+07, 1.829560417970275E+07,
2461043.500000000, A.D. 2026-Jan-03 00:00:00.0000, 2.781969450554211E+08, -3.913747219413409E+07, 1.941192592412828E+07,
2461050.500000000, A.D. 2026-Jan-10 00:00:00.0000, 2.806015091861535E+08, -2.532975221203151E+07, 2.048606374894610E+07,
2461057.500000000, A.D. 2026-Jan-17 00:00:00.0000, 2.824019498441395E+08, -1.146747290414492E+07, 2.151609800018389E+07,
2461064.500000000, A.D. 2026-Jan-24 00:00:00.0000, 2.836005791662419E+08, 2.419272761478249E+06, 2.250028294928521E+07,
2461071.500000000, A.D. 2026-Jan-31 00:00:00.0000, 2.842014982160599E+08, 1.630095110775467E+07, 2.343704965141948E+07,
2461078.500000000, A.D. 2026-Feb-07 00:00:00.0000, 2.842105106094856E+08, 3.014871321487086E+07, 2.432500716963632E+07,
2461085.500000000, A.D. 2026-Feb-14 00:00:00.0000, 2.836350270751059E+08, 4.393450784235109E+07, 2.516294222896466E+07,
2461092.500000000, A.D. 2026-Feb-21 00:00:00.0000, 2.824839631905918E+08, 5.763118178319354E+07, 2.594981741941058E+07,
2461099.500000000, A.D. 2026-Feb-28 00:00:00.0000, 2.807676310413976E+08, 7.121256849294105E+07, 2.668476826544882E+07,
2461106.500000000, A.D. 2026-Mar-07 00:00:00.0000, 2.784976245303709E+08, 8.465356299403112E+07, 2.736709932971862E+07,
2461113.500000000, A.D. 2026-Mar-14 00:00:00.0000, 2.756867027921530E+08, 9.793018089757012E+07, 2.799627904477480E+07,
2461120.500000000, A.D. 2026-Mar-21 00:00:00.0000, 2.723486750282136E+08, 1.110196048394573E+08, 2.857193348627423E+07,
2461127.500000000, A.D. 2026-Mar-28 00:00:00.0000, 2.684982861587965E+08, 1.239002199516260E+08, 2.909383950456542E+07,
2461134.500000000, A.D. 2026-Apr-04 00:00:00.0000, 2.641511039566554E+08, 1.365516381321743E+08, 2.956191734302668E+07,
2461141.500000000, A.D. 2026-Apr-11 00:00:00.0000, 2.593234090411054E+08, 1.489547115785586E+08, 2.997622283381955E+07,
2461148.500000000, A.D. 2026-Apr-18 00:00:00.0000, 2.540320888167522E+08, 1.610915364693385E+08, 3.033693928833153E+07,
2461155.500000000, A.D. 2026-Apr-25 00:00:00.0000, 2.482945361498498E+08, 1.729454477487139E+08, 3.064436919808394E+07,
2461162.500000000, A.D. 2026-May-02 00:00:00.0000, 2.421285533942057E+08, 1.845010059492926E+08, 3.089892584729002E+07,
2461169.500000000, A.D. 2026-May-09 00:00:00.0000, 2.355522623217495E+08, 1.957439769552151E+08, 3.110112491530940E+07,
2461176.500000000, A.D. 2026-May-16 00:00:00.0000, 2.285840206318291E+08, 2.066613057946640E+08, 3.125157612950879E+07,
2461183.500000000, A.D. 2026-May-23 00:00:00.0000, 2.212423452645370E+08, 2.172410863939525E+08, 3.135097511812551E+07,
2461190.500000000, A.D. 2026-May-30 00:00:00.0000, 2.135458404915770E+08, 2.274725284706572E+08, 3.140009573750159E+07,
2461197.500000000, A.D. 2026-Jun-06 00:00:00.0000, 2.055131304294549E+08, 2.373459191114279E+08, 3.139978268672077E+07,
2461204.500000000, A.D. 2026-Jun-13 00:00:00.0000, 1.971627995429931E+08, 2.468525799875796E+08, 3.135094413107817E+07,
2461211.500000000, A.D. 2026-Jun-20 00:00:00.0000, 1.885133404628992E+08, 2.559848238074596E+08, 3.125454464710674E+07,
2461218.500000000, A.D. 2026-Jun-27 00:00:00.0000, 1.795831071850698E+08, 2.647359102752172E+08, 3.111159863730192E+07,
2461225.500000000, A.D. 2026-Jul-04 00:00:00.0000, 1.703902733812765E+08, 2.731000013265871E+08, 3.092316416493607E+07,
2461232.500000000, A.D. 2026-Jul-11 00:00:00.0000, 1.609527957769404E+08, 2.810721159889759E+08, 3.069033718199673E+07,
2461239.500000000, A.D. 2026-Jul-18 00:00:00.0000, 1.512883823704358E+08, 2.886480853070104E+08, 3.041424614519139E+07,
2461246.500000000, A.D. 2026-Jul-25 00:00:00.0000, 1.414144651880854E+08, 2.958245076917908E+08, 3.009604701456618E+07,
2461253.500000000, A.D. 2026-Aug-01 00:00:00.0000, 1.313481772875929E+08, 3.025987049456871E+08, 2.973691861906534E+07,
2461260.500000000, A.D. 2026-Aug-08 00:00:00.0000, 1.211063338901569E+08, 3.089686791763355E+08, 2.933805835603367E+07,
2461267.500000000, A.D. 2026-Aug-15 00:00:00.0000, 1.107054177282546E+08, 3.149330712554964E+08, 2.890067821082680E+07,
2461274.500000000, A.D. 2026-Aug-22 00:00:00.0000, 1.001615675331963E+08, 3.204911222065598E+08, 2.842600125111088E+07,
2461281.500000000, A.D. 2026-Aug-29 00:00:00.0000, 8.949056706708561E+07, 3.256426362623336E+08, 2.791525867575458E+07,
2461288.500000000, A.D. 2026-Sep-05 00:00:00.0000, 7.870783653164198E+07, 3.303879428140998E+08, 2.736968697159629E+07,
$$EOE